{"type": "FeatureCollection", "features": [ {"type": "Feature", "properties": {"norad_id": 34878, "name": "COSMOS 2251 DEB", "group": "cosmos-2251-debris", "lat": -66.46744237604197, "lon": -112.69396432285838, "alt_km": 1222.7945539109141, "timestamp": "2025-12-26T04:40:06.180208+00:00", "meta": {"OBJECT_NAME": "COSMOS 2251 DEB", "OBJECT_ID": "1993-036ACR", "EPOCH": "2025-12-24T20:09:00.800640", "MEAN_MOTION": 13.44206529, "ECCENTRICITY": 0.04357079, "INCLINATION": 73.9646, "RA_OF_ASC_NODE": 28.1265, "ARG_OF_PERICENTER": 9.2783, "MEAN_ANOMALY": 173.5848, "EPHEMERIS_TYPE": 0, "CLASSIFICATION_TYPE": "U", "NORAD_CAT_ID": 34878, "ELEMENT_SET_NO": 999, "REV_AT_EPOCH": 81435, "BSTAR": 0.00069766947, "MEAN_MOTION_DOT": 6.96e-06, "MEAN_MOTION_DDOT": 0}, "tle": {"line1": "1 34878U 93036ACR 25358.83959260  .00000696  00000+0  69767-3 0  9994", "line2": "2 34878  73.9646  28.1265 0435707   9.2783 173.5848 13.44206529814359"}}, "geometry": {"type": "Point", "coordinates": [-112.69396432285838, -66.46744237604197]}}, {"type": "Feature", "properties": {"norad_id": 34882, "name": "COSMOS 2251 DEB", "group": "cosmos-2251-debris", "lat": -5.804349017867841, "lon": -161.79942520222698, "alt_km": 640.4134184220748, "timestamp": "2025-12-26T04:40:06.180217+00:00", "meta": {"OBJECT_NAME": "COSMOS 2251 DEB", "OBJECT_ID": "1993-036ACV", "EPOCH": "2025-12-24T14:54:49.727232", "MEAN_MOTION": 14.61616436, "ECCENTRICITY": 0.00833525, "INCLINATION": 74.0451, "RA_OF_ASC_NODE": 202.874, "ARG_OF_PERICENTER": 327.0403, "MEAN_ANOMALY": 32.5581, "EPHEMERIS_TYPE": 0, "CLASSIFICATION_TYPE": "U", "NORAD_CAT_ID": 34882, "ELEMENT_SET_NO": 999, "REV_AT_EPOCH": 88698, "BSTAR": 0.00012189648, "MEAN_MOTION_DOT": 6.03e-06, "MEAN_MOTION_DDOT": 0}, "tle": {"line1": "1 34882U 93036ACV 25358.62140888  .00000603  00000+0  12190-3 0  9990", "line2": "2 34882  74.0451 202.8740 0083352 327.0403  32.5581 14.61616436886982"}}, "geometry": {"type": "Point", "coordinates": [-161.79942520222698, -5.804349017867841]}}, {"type": "Feature", "properties": {"norad_id": 34883, "name": "COSMOS 2251 DEB", "group": "cosmos-2251-debris", "lat": -70.36084957616448, "lon": -14.874482224613736, "alt_km": 694.2698407604648, "timestamp": "2025-12-26T04:40:06.180227+00:00", "meta": {"OBJECT_NAME": "COSMOS 2251 DEB", "OBJECT_ID": "1993-036ACW", "EPOCH": "2025-12-25T12:29:30.541632", "MEAN_MOTION": 14.51859717, "ECCENTRICITY": 0.0094459, "INCLINATION": 74.2013, "RA_OF_ASC_NODE": 38.8875, "ARG_OF_PERICENTER": 221.5013, "MEAN_ANOMALY": 137.8952, "EPHEMERIS_TYPE": 0, "CLASSIFICATION_TYPE": "U", "NORAD_CAT_ID": 34883, "ELEMENT_SET_NO": 999, "REV_AT_EPOCH": 86625, "BSTAR": 0.0033923, "MEAN_MOTION_DOT": 0.00014484, "MEAN_MOTION_DDOT": 0}, "tle": {"line1": "1 34883U 93036ACW 25359.52049238  .00014484  00000+0  33923-2 0  9996", "line2": "2 34883  74.2013  38.8875 0094459 221.5013 137.8952 14.51859717866259"}}, "geometry": {"type": "Point", "coordinates": [-14.874482224613736, -70.36084957616448]}}, {"type": "Feature", "properties": {"norad_id": 34884, "name": "COSMOS 2251 DEB", "group": "cosmos-2251-debris", "lat": -67.3942424441181, "lon": -13.72632624951538, "alt_km": 603.1634624386579, "timestamp": "2025-12-26T04:40:06.180237+00:00", "meta": {"OBJECT_NAME": "COSMOS 2251 DEB", "OBJECT_ID": "1993-036ACX", "EPOCH": "2025-12-25T05:09:45.606816", "MEAN_MOTION": 14.90612339, "ECCENTRICITY": 0.0003184, "INCLINATION": 74.0172, "RA_OF_ASC_NODE": 31.7366, "ARG_OF_PERICENTER": 28.5094, "MEAN_ANOMALY": 44.2037, "EPHEMERIS_TYPE": 0, "CLASSIFICATION_TYPE": "U", "NORAD_CAT_ID": 34884, "ELEMENT_SET_NO": 999, "REV_AT_EPOCH": 87991, "BSTAR": 0.002404, "MEAN_MOTION_DOT": 0.0002359, "MEAN_MOTION_DDOT": 0}, "tle": {"line1": "1 34884U 93036ACX 25359.21511119  .00023590  00000+0  24040-2 0  9993", "line2": "2 34884  74.0172  31.7366 0003184  28.5094  44.2037 14.90612339879912"}}, "geometry": {"type": "Point", "coordinates": [-13.72632624951538, -67.3942424441181]}}, {"type": "Feature", "properties": {"norad_id": 34885, "name": "COSMOS 2251 DEB", "group": "cosmos-2251-debris", "lat": 73.66524953131095, "lon": -100.02496488428356, "alt_km": 722.3227678620124, "timestamp": "2025-12-26T04:40:06.180247+00:00", "meta": {"OBJECT_NAME": "COSMOS 2251 DEB", "OBJECT_ID": "1993-036ACY", "EPOCH": "2025-12-25T20:30:09.906912", "MEAN_MOTION": 14.51573289, "ECCENTRICITY": 0.00150484, "INCLINATION": 74.0301, "RA_OF_ASC_NODE": 158.3276, "ARG_OF_PERICENTER": 243.82, "MEAN_ANOMALY": 232.4643, "EPHEMERIS_TYPE": 0, "CLASSIFICATION_TYPE": "U", "NORAD_CAT_ID": 34885, "ELEMENT_SET_NO": 999, "REV_AT_EPOCH": 87669, "BSTAR": 0.00082730584, "MEAN_MOTION_DOT": 3.29e-05, "MEAN_MOTION_DDOT": 0}, "tle": {"line1": "1 34885U 93036ACY 25359.85428133  .00003290  00000+0  82731-3 0  9994", "line2": "2 34885  74.0301 158.3276 0015048 243.8200 232.4643 14.51573289876699"}}, "geometry": {"type": "Point", "coordinates": [-100.02496488428356, 73.66524953131095]}}, {"type": "Feature", "properties": {"norad_id": 34886, "name": "COSMOS 2251 DEB", "group": "cosmos-2251-debris", "lat": 60.875407471944364, "lon": -59.31976261830758, "alt_km": 455.48611944946606, "timestamp": "2025-12-26T04:40:06.180257+00:00", "meta": {"OBJECT_NAME": "COSMOS 2251 DEB", "OBJECT_ID": "1993-036ACZ", "EPOCH": "2025-12-24T03:50:55.292352", "MEAN_MOTION": 15.40106218, "ECCENTRICITY": 0.0031856, "INCLINATION": 73.9515, "RA_OF_ASC_NODE": 156.2077, "ARG_OF_PERICENTER": 338.1702, "MEAN_ANOMALY": 21.8145, "EPHEMERIS_TYPE": 0, "CLASSIFICATION_TYPE": "U", "NORAD_CAT_ID": 34886, "ELEMENT_SET_NO": 999, "REV_AT_EPOCH": 63174, "BSTAR": 0.0019524781, "MEAN_MOTION_DOT": 0.00080389, "MEAN_MOTION_DDOT": 0}, "tle": {"line1": "1 34886U 93036ACZ 25358.16036218  .00080389  00000+0  19525-2 0  9991", "line2": "2 34886  73.9515 156.2077 0031856 338.1702  21.8145 15.40106218631746"}}, "geometry": {"type": "Point", "coordinates": [-59.31976261830758, 60.875407471944364]}}, {"type": "Feature", "properties": {"norad_id": 34907, "name": "COSMOS 2251 DEB", "group": "cosmos-2251-debris", "lat": 41.51408123835074, "lon": -175.93025503498887, "alt_km": 411.19157951937086, "timestamp": "2025-12-26T04:40:06.180267+00:00", "meta": {"OBJECT_NAME": "COSMOS 2251 DEB", "OBJECT_ID": "1993-036ADC", "EPOCH": "2025-12-24T02:37:30.225504", "MEAN_MOTION": 15.52535461, "ECCENTRICITY": 0.00168337, "INCLINATION": 73.9648, "RA_OF_ASC_NODE": 23.4353, "ARG_OF_PERICENTER": 325.481, "MEAN_ANOMALY": 34.5309, "EPHEMERIS_TYPE": 0, "CLASSIFICATION_TYPE": "U", "NORAD_CAT_ID": 34907, "ELEMENT_SET_NO": 999, "REV_AT_EPOCH": 88149, "BSTAR": 0.0074290364, "MEAN_MOTION_DOT": 0.00487105, "MEAN_MOTION_DDOT": 0}, "tle": {"line1": "1 34907U 93036ADC 25358.10937761  .00487105  00000+0  74290-2 0  9999", "line2": "2 34907  73.9648  23.4353 0016833 325.4810  34.5309 15.52535461881497"}}, "geometry": {"type": "Point", "coordinates": [-175.93025503498887, 41.51408123835074]}}, {"type": "Feature", "properties": {"norad_id": 34908, "name": "COSMOS 2251 DEB", "group": "cosmos-2251-debris", "lat": -11.228119189672107, "lon": -177.8148932882802, "alt_km": 799.9798015910383, "timestamp": "2025-12-26T04:40:06.180277+00:00", "meta": {"OBJECT_NAME": "COSMOS 2251 DEB", "OBJECT_ID": "1993-036ADD", "EPOCH": "2025-12-24T10:43:39.700992", "MEAN_MOTION": 14.37433526, "ECCENTRICITY": 0.00406595, "INCLINATION": 74.0579, "RA_OF_ASC_NODE": 2.1423, "ARG_OF_PERICENTER": 14.7235, "MEAN_ANOMALY": 137.436, "EPHEMERIS_TYPE": 0, "CLASSIFICATION_TYPE": "U", "NORAD_CAT_ID": 34908, "ELEMENT_SET_NO": 999, "REV_AT_EPOCH": 87447, "BSTAR": 0.0005476007, "MEAN_MOTION_DOT": 1.627e-05, "MEAN_MOTION_DDOT": 0}, "tle": {"line1": "1 34908U 93036ADD 25358.44698728  .00001627  00000+0  54760-3 0  9996", "line2": "2 34908  74.0579   2.1423 0040659  14.7235 137.4360 14.37433526874478"}}, "geometry": {"type": "Point", "coordinates": [-177.8148932882802, -11.228119189672107]}}, {"type": "Feature", "properties": {"norad_id": 34909, "name": "COSMOS 2251 DEB", "group": "cosmos-2251-debris", "lat": 53.77061308967686, "lon": -152.91521236646986, "alt_km": 600.5807069275525, "timestamp": "2025-12-26T04:40:06.180287+00:00", "meta": {"OBJECT_NAME": "COSMOS 2251 DEB", "OBJECT_ID": "1993-036ADE", "EPOCH": "2025-12-25T19:59:15.179712", "MEAN_MOTION": 14.7793658, "ECCENTRICITY": 0.00836064, "INCLINATION": 74.014, "RA_OF_ASC_NODE": 50.8291, "ARG_OF_PERICENTER": 183.5214, "MEAN_ANOMALY": 176.5384, "EPHEMERIS_TYPE": 0, "CLASSIFICATION_TYPE": "U", "NORAD_CAT_ID": 34909, "ELEMENT_SET_NO": 999, "REV_AT_EPOCH": 67045, "BSTAR": 0.0004989948, "MEAN_MOTION_DOT": 3.776e-05, "MEAN_MOTION_DDOT": 0}, "tle": {"line1": "1 34909U 93036ADE 25359.83281458  .00003776  00000+0  49899-3 0  9993", "line2": "2 34909  74.0140  50.8291 0083606 183.5214 176.5384 14.77936580670451"}}, "geometry": {"type": "Point", "coordinates": [-152.91521236646986, 53.77061308967686]}}, {"type": "Feature", "properties": {"norad_id": 34910, "name": "COSMOS 2251 DEB", "group": "cosmos-2251-debris", "lat": 45.51074257813417, "lon": -116.93225226941891, "alt_km": 951.7812052998852, "timestamp": "2025-12-26T04:40:06.180297+00:00", "meta": {"OBJECT_NAME": "COSMOS 2251 DEB", "OBJECT_ID": "1993-036ADF", "EPOCH": "2025-12-23T22:45:30.280032", "MEAN_MOTION": 13.37707493, "ECCENTRICITY": 0.0467761, "INCLINATION": 73.8761, "RA_OF_ASC_NODE": 83.7364, "ARG_OF_PERICENTER": 200.8485, "MEAN_ANOMALY": 282.4529, "EPHEMERIS_TYPE": 0, "CLASSIFICATION_TYPE": "U", "NORAD_CAT_ID": 34910, "ELEMENT_SET_NO": 999, "REV_AT_EPOCH": 81674, "BSTAR": 0.0010465, "MEAN_MOTION_DOT": 1.013e-05, "MEAN_MOTION_DDOT": 0}, "tle": {"line1": "1 34910U 93036ADF 25357.94826713  .00001013  00000+0  10465-2 0  9992", "line2": "2 34910  73.8761  83.7364 0467761 200.8485 282.4529 13.37707493816742"}}, "geometry": {"type": "Point", "coordinates": [-116.93225226941891, 45.51074257813417]}}]}